ALOS-4 (DAICHI-4)       
1 60182U 24123A   24214.84938132  .00003818  00000+0  51779-3 0  9991
2 60182  97.9219 310.8574 0001521 107.0021 253.1357 14.79472266  4697
